TAF VTCC 052300Z 0600/0706 02005KT 9999 SCT035
BECMG 0602/0604 16005KT
TEMPO 0608/0614 -TSRA FEW025CB BKN032
BECMG 0610/0612 24005KT
BECMG 0618/0620 36005KT=
 
TAF VLLB 052300Z 0600/0624 04004KT 9999 SCT020 FEW060=
 
TAF VVNB 052300Z 0600/0624 06005KT 3500 BR SCT025
BECMG 0601/0602 6000 NSW
BECMG 0621/0622 3000 BR=
 
TAF ZGNN 052106Z 0600/0624 12003MPS 5000 BR SCT030 TX33/0607Z TN23/0622Z=
 
TAF ZJHK 052113Z 0600/0624 09003MPS 5000 BR SCT020 TX30/0606Z TN24/0621Z
TEMPO 0604/0610 -TSRA SCT020 FEW023CB=
 
TAF ZPPP 052105Z 0600/0624 22004MPS 9999 SCT026 TX23/0608Z TN14/0623Z=
 
TAF ZGKL 052122Z 0600/0624 05004MPS 6000 SCT030 BKN050 TX29/0607Z TN19/0622Z
TEMPO 0600/0602 SHRA FEW015 SCT026 FEW040CB BKN040=
 
TAF ZGGG 052103Z 0600/0624 06003MPS 8000 BKN040 TX34/0607Z TN25/0622Z
TEMPO 0618/0624 3500 TSRA SCT030CB BKN033
BECMG 0623/0624 36005MPS=
 
TAF VHHH 060200Z 0603/0709 09010KT 9999 FEW020 TX32/0606Z TX31/0706Z TN27/0622Z
TEMPO 0606/0615 4000 SHRA FEW010CB SCT025
TEMPO 0622/0704 4000 SHRA FEW010CB SCT025=
 
TAF RPLI 052300Z 0600/0624 06006KT 9999 FEW018
TEMPO 0606/0612 TS FEW017CB SCT018 BKN280=
 
TAF ZSAM 052107Z 0600/0624 07004G09MPS 8000 SCT026 TX31/0606Z TN25/0621Z=
 
TAF ZSFZ 052111Z 0600/0624 04006MPS 6000 BKN015 TX27/0606Z TN23/0622Z=
 
TAF ZSWZ 052100Z 0600/0624 07004MPS 6000 SCT020 TX26/0606Z TN22/0621Z=
 
TAF ZSPD 052105Z 0600/0624 02005MPS 6000 BKN020 TX19/0606Z TN14/0621Z=
 
TAF ZSOF 052104Z 0600/0624 04004MPS 3000 -RA BR BKN007 OVC033 TX13/0606Z TN10/0622Z
BECMG 0614/0615 BKN020=
 
TAF ZSCN 052104Z 0600/0624 36004G11MPS 3500 BR SCT011 TX20/0606Z TN14/0622Z
TEMPO 0600/0604 BKN007 OVC040=
 
TAF ZHHH 052102Z 0600/0624 03004MPS 5000 -RA BR SCT015 BKN040 TX13/0607Z TN11/0621Z=
 
TAF ZGHA 052101Z 0600/0624 33004MPS 5000 BR BKN011 OVC050 TX15/0607Z TN12/0622Z=
 
TAF ZUCK 052105Z 0600/0624 31003MPS 5000 -RA BR SCT020 OVC050 TX17/0607Z TN14/0621Z=
 
TAF ZUUU 052101Z 0600/0624 02003MPS 6000 SCT040 TX19/0607Z TN14/0623Z=
 
TAF ZLLL 052109Z 0600/0624 14003MPS 6000 BKN040 TX12/0608Z TN06/0623Z=
 
TAF ZLXY 052105Z 0600/0624 24003MPS 3000 -RA BR OVC040 TX13/0608Z TN08/0622Z
BECMG 0606/0607 BR=
 
TAF ZHCC 052112Z 0600/0624 30003MPS 5000 BR NSC TX14/0607Z TN07/0622Z=
 
TAF ZSJN 052101Z 0600/0624 17003MPS 3500 BR NSC TX16/0606Z TN07/0621Z=
 
TAF ZBTJ 052111Z 0600/0624 23003MPS 6000 NSC TX18/0606Z TN06/0621Z=
 
TAF ZBAA 052103Z 0600/0624 19004MPS CAVOK TX18/0607Z TN04/0621Z=
 
TAF ZSQD 052114Z 0600/0624 36004MPS 6000 NSC TX18/0606Z TN08/0621Z=
 
TAF ZSYT 052101Z 0600/0624 01004MPS 6000 SCT023 TX16/0606Z TN09/0621Z=
 
TAF ZYTL 052107Z 0600/0624 13004MPS 6000 FEW033 TX15/0606Z TN06/0621Z=
 
TAF ZYTX 052103Z 0600/0624 30003MPS 6000 NSC TX15/0606Z TN02/0621Z=
 
TAF ZKPY 052100Z 0600/0624 35005MPS CAVOK TX17/0606Z TN07/0621Z=
 
TAF RKSI 052300Z 0600/0706 02008KT 9999 SCT030 BKN200 TX20/0605Z TN12/0621Z TX18/0705Z
BECMG 0604/0606 28010KT
TEMPO 0606/0610 34010KT
BECMG 0611/0613 35015G25KT
TEMPO 0617/0620 BKN030=
 
TAF COR RKPK 052300Z 0600/0706 36006KT 8000 -RA SCT020 BKN080 TN15/0621Z TX22/0706Z
BECMG 0601/0602 NSW SCT030 BKN100
BECMG 0605/0606 BKN030 BKN200
BECMG 0614/0615 9999 SCT030 BKN100
BECMG 0623/0624 SCT030=
 
TAF RKPC 052300Z 0600/0706 18005KT 9999 SCT030 BKN100 TX20/0605Z TN16/0619Z TX19/0705Z
BECMG 0601/0602 34009KT SCT030 BKN120
BECMG 0612/0613 BKN030 BKN100
BECMG 0623/0624 34015G25KT SCT030 BKN200=
 
TAF ROAH 052306Z 0600/0706 02013KT 9999 FEW020 SCT025=
 
TAF RJFK 052307Z 0600/0706 10003KT 9999 FEW020 SCT030
BECMG 0607/0609 33006KT=
 
TAF RJFF 052306Z 0600/0706 13006KT 9999 FEW025
BECMG 0618/0621 31012KT=
 
TAF RJOK 052307Z 0600/0706 32005KT 9999 FEW025 BKN050
TEMPO 0618/0621 4000 SHRA BR=
 
TAF RJOB 052305Z 0600/0706 07005KT 9999 FEW025 SCT045
BECMG 0703/0706 22005KT=
 
TAF RJBB 052305Z 0600/0706 04011KT 9999 FEW030
TEMPO 0621/0703 4000 SHRA BR=
 
TAF RJGG 052305Z 0600/0706 02008KT 9999 FEW020 BKN050
BECMG 0606/0608 12010KT
BECMG 0621/0700 36010KT
TEMPO 0700/0706 4000 RA BR FEW005 BKN008=
 
TAF RJNT 052305Z 0600/0706 02008KT 9999 FEW030 BKN060
BECMG 0610/0612 20004KT
BECMG 0703/0706 02005KT=
 
TAF RCQC 052300Z 0600/0624 02016KT 9999 FEW010 SCT016 TX31/0605Z TN25/0620Z
BECMG 0601/0604 02012KT FEW010 BKN016
BECMG 0605/0608 02018KT FEW010 SCT016
TEMPO 0610/0615 FEW012 BKN016
BECMG 0616/0619 02012KT FEW010 BKN016=
 
TAF RCYU 052300Z 0600/0624 06006KT 9999 FEW012 SCT025 BKN060 TX28/0605Z TN23/0621Z
BECMG 0602/0605 03018KT FEW012 BKN025 BKN050
TEMPO 0606/0611 7000 -RA
BECMG 0612/0613 4000 RA BR SCT010 BKN020 BKN040
BECMG 0614/0615 06006KT 6000 -RA FEW012 BKN050
BECMG 0616/0619 24004KT 9999 FEW012 SCT050=
 
TAF RCMQ 052300Z 0600/0624 03004KT 9999 FEW012 SCT040 TX31/0605Z TN22/0621Z
BECMG 0601/0604 01008KT
TEMPO 0605/0610 FEW008 BKN030
BECMG 0613/0616 02004KT
TEMPO 0618/0623 7000=
 
TAF RCNN 052300Z 0600/0624 08004KT 8000 FEW012 SCT060 TX31/0605Z TN25/0620Z
BECMG 0601/0604 28012KT 9999
TEMPO 0608/0612 8000 -RA FEW012 SCT025 BKN050
BECMG 0613/0616 02004KT FEW012 BKN060
BECMG 0620/0623 7000 FEW012 SCT060=
 
